NUSAT-1 (FRESCO)        
1 41557U 16033B   22277.83939619  .00020546  00000+0  56370-3 0  9993
2 41557  97.3885  15.9099 0009611 351.9793 102.8356 15.37250207354178
BEESAT-4                
1 41619U 16040W   22277.09995332  .00033789  00000+0  10262-2 0  9994
2 41619  97.2052 324.9515 0010448  90.2973 269.9467 15.33946904337363
CAS-2T & KS-1Q          
1 41847U 16066G   22277.46423362  .00001434  00000+0  22574-3 0  9997
2 41847  98.5399 341.9705 0362229 243.6666 112.6902 14.38752535310025
NAYIF-1 (EO-88)         
1 42017U 17008BX  22277.15339168  .00037516  00000+0  10022-2 0  9994
2 42017  97.2575 341.8568 0004247 197.3073 162.8028 15.37990265313767
ZHUHAI-1 02 (CAS-4B)    
1 42759U 17034B   22277.76488404  .00004736  00000+0  27859-3 0  9996
2 42759  43.0163  89.8712 0010706 263.3076 217.5924 15.12627042292904
ZHUHAI-1 01 (CAS-4A)    
1 42761U 17034D   22277.77519863  .00005304  00000+0  30969-3 0  9992
2 42761  43.0172  88.5252 0011230 262.5180 113.3156 15.12712464292916
MAX VALIER SAT          
1 42778U 17036P   22277.11686527  .00018621  00000+0  67067-3 0  9997
2 42778  97.1956 314.5313 0008649 304.7133  55.3292 15.28582165293491
RADFXSAT (FOX-1B)       
1 43017U 17073E   22277.43158181  .00006426  00000+0  47932-3 0  9999
2 43017  97.6584 167.1371 0245826 190.3865 169.2220 14.82134852263259
FOX-1D (AO-92)          
1 43137U 18004AC  22277.16613761  .00021672  00000+0  71678-3 0  9991
2 43137  97.3599 351.4278 0006685 346.6666  13.4397 15.31342845262973
DIWATA-2B               
1 43678U 18084H   22277.81480193  .00001690  00000+0  17101-3 0  9991
2 43678  97.9866  52.4700 0008456 286.9155  73.1150 14.92345078214166
ES'HAIL 2               
1 43700U 18090A   22277.74694330  .00000129  00000+0  00000+0 0  9998
2 43700   0.0154 249.1980 0002264 329.3672  89.5661  1.00271421 14362
FOX-1CLIFF (AO-95)      
1 43770U 18099N   22277.16661081  .00004975  00000+0  43763-3 0  9997
2 43770  97.6098 340.6649 0012882 271.0563  88.9182 14.96900808209270
ITASAT 1                
1 43786U 18099AE  22277.21828516  .00004022  00000+0  35395-3 0  9993
2 43786  97.6138 341.6897 0013038 263.2806  96.6932 14.96990669209324
JY1SAT (JO-97)          
1 43803U 18099AX  22277.39708912  .00006681  00000+0  57560-3 0  9990
2 43803  97.6091 341.6548 0012701 259.3342 100.6450 14.97589299209372
UWE-4                   
1 43880U 18111E   22277.18409668  .00006045  00000+0  50679-3 0  9991
2 43880  97.6567 181.5753 0011358 321.7156  38.3260 14.98703690205981
NEXUS (FO-99)           
1 43937U 19003F   22277.32611107  .00027238  00000+0  84465-3 0  9991
2 43937  97.1230 306.5604 0021249 121.6215 238.7105 15.33155859206649
PSAT2 (NO-104)          
1 44354U 19036R   22276.31325721  .00145576 -10597-5  10194-2 0  9995
2 44354  28.5207 144.3735 0185364 116.4877 245.4864 15.53070056181380
JAISAT-1                
1 44419U 19038F   22277.65964034  .00018343  00000+0  87564-3 0  9991
2 44419  97.6478 248.8439 0020775 111.3540 248.9914 15.18919227179626
DUCHIFAT-3              
1 44854U 19089C   22277.85665287  .00005491  00000+0  41930-3 0  9997
2 44854  36.9649 171.4549 0007840  17.9317  64.9441 15.01754428154388
CAS-6 (TIANQIN 1)       
1 44881U 19093C   22277.83816128  .00000802  00000+0  10800-3 0  9995
2 44881  97.8854 355.4472 0014705 185.1261 174.9809 14.81839873150971
RS-44 & BREEZE-KM R/B   
1 44909U 19096E   22277.17748432  .00000015  00000+0  91115-5 0  9994
2 44909  82.5231 158.0644 0218369  65.6017 296.7703 12.79715470129415
ORBITAL FACTORY 2 (OF-2)
1 45113U 19071C   22277.40861701  .00062757  00000+0  10512-2 0  9996
2 45113  51.6349 241.2218 0007383 197.0135 163.0608 15.51225779150252
HUSKYSAT-1 (HO-107)     
1 45119U 19071J   22277.30876823  .00057641  00000+0  10273-2 0  9992
2 45119  51.6358 242.7710 0007486 194.3599 165.7178 15.49508657150212
BY70-2                  
1 45857U 20042B   22277.85708095  .00013645  00000+0  17611-2 0  9995
2 45857  97.9490 353.7086 0011588 123.1542 237.1787 14.81054332121642
SALSAT                  
1 46495U 20068K   22277.35570331  .00004700  00000+0  33536-3 0  9994
2 46495  97.7366 218.7551 0014299 268.7459  91.2129 15.04958697110564
BY70-3                  
1 46839U 20079N   22277.84003911  .00042898  00000+0  85291-3 0  9992
2 46839  97.1860 348.7650 0003423 286.0640 211.4777 15.46829041107124
RADFXSAT-2 (AO-109)     
1 47311U 21002C   22277.82177973  .00015178  00000+0  56872-3 0  9997
2 47311  60.6857 310.0657 0035060  47.8613 312.5445 15.26947525 95166
UVSQ-SAT                
1 47438U 21006AB  22277.10666124  .00013733  00000+0  70000-3 0  9997
2 47438  97.4259 333.8966 0010129 255.3290 104.6821 15.16835730 93745
DIY-1 (ARDUIQUBE)       
1 47963U 21022AH  22277.26741043  .00039063  00000+0  19831-2 0  9997
2 47963  97.5189 177.5165 0018145 112.5395 247.7760 15.16648251 83426
XW-3 (CAS-9)            
1 50466U 21131B   22277.79263461  .00000497  00000+0  17710-3 0  9995
2 50466  98.5739 354.9608 0004935 170.2479 189.8805 14.38535985 40633
TEVEL-3                 
1 50988U 22002E   22277.80762133  .00009806  00000+0  51674-3 0  9994
2 50988  97.4703 342.9929 0010280  53.2395  41.0609 15.15747297 39974
TEVEL-8                 
1 50989U 22002F   22277.81638764  .00009789  00000+0  51662-3 0  9995
2 50989  97.4722 343.0325 0010333  52.0637  41.5030 15.15694163 39979
TEVEL-5                 
1 50998U 22002Q   22277.85835293  .00010232  00000+0  53106-3 0  9995
2 50998  97.4696 343.2034 0011715  46.3443  43.7916 15.16259492 39996
TEVEL-6                 
1 50999U 22002R   22277.85776966  .00010686  00000+0  55438-3 0  9990
2 50999  97.4695 343.1994 0011152  47.2045  43.4895 15.16269057 39994
TEVEL-1                 
1 51013U 22002AF  22277.81187649  .00009802  00000+0  51697-3 0  9999
2 51013  97.4695 342.9711 0009965  51.5898  43.8387 15.15720323 39974
TEVEL-7                 
1 51062U 22002CG  22277.81827666  .00009824  00000+0  51855-3 0  9993
2 51062  97.4719 343.0187 0010322  52.3998  41.0370 15.15687937 39978
TEVEL-4                 
1 51063U 22002CH  22277.81938023  .00009803  00000+0  51762-3 0  9998
2 51063  97.4720 343.0148 0010294  51.8318  41.4787 15.15676556 39977
TEVEL-2                 
1 51069U 22002CP  22277.80973969  .00009859  00000+0  51962-3 0  9994
2 51069  97.4709 342.9801 0010270  52.1293  45.3919 15.15741446 39975
GREENCUBE               
1 53106U 22080B   22276.55284936 -.00000003  00000+0  00000+0 0  9990
2 53106  70.1655  48.8724 0008696 239.2659 120.7144  6.42557820  5260
YUZGU 9 (RS3S)          
1 53308U 98067TT  22277.72198245  .00094593  00000+0  13017-2 0  9990
2 53308  51.6394 152.4416 0002884 237.1393 122.9321 15.56478427 11733
YUZGU 7 (RS1S)          
1 53309U 98067TU  22277.71776964  .00101906  00000+0  13884-2 0  9999
2 53309  51.6388 152.4109 0002535 252.5623 107.5092 15.56713551 11684
YUZGU 11 (RS5S)         
1 53310U 98067TV  22277.72158146  .00095869  00000+0  13182-2 0  9999
2 53310  51.6394 152.4397 0002341 249.7201 110.3539 15.56495037 11715
YUZGU 12 (RS6S)         
1 53311U 98067TW  22277.71125229  .00102858  00000+0  13880-2 0  9997
2 53311  51.6385 152.3664 0003221 229.6435 130.4276 15.56965102 11734
TSIOLKOVSKY-RYAZAN 1 (*)
1 53312U 98067TX  22277.71583350  .00098171  00000+0  13387-2 0  9995
2 53312  51.6394 152.3997 0002422 258.0748 101.9972 15.56707440 11677
TSIOLKOVSKY-RYAZAN 2 (*)
1 53313U 98067TY  22277.71379327  .00097720  00000+0  13311-2 0  9999
2 53313  51.6393 152.3867 0002040 250.2625 109.8147 15.56739603 11720
YUZGU 10 (RS4S)         
1 53321U 98067TZ  22277.72138619  .00096616  00000+0  13238-2 0  9997
2 53321  51.6396 152.4403 0002714 241.1509 118.9210 15.56585697 11721
RS29S (SXC3-2110 CYCLO*)
1 53373U 22096D   22277.82222501  .00014047  00000+0  55875-3 0  9990
2 53373  97.4295 178.8739 0002577  43.0352  44.0452 15.25386648  8612
RS32S (SXC3-212 MONITO*)
1 53374U 22096E   22277.81796391  .00014134  00000+0  56022-3 0  9995
2 53374  97.4294 178.8777 0002142  45.3027  40.7122 15.25502782  8612
RS34S (SXC3-218 KUZBAS*)
1 53375U 22096F   22277.88060100  .00011017  00000+0  43907-3 0  9990
2 53375  97.4299 178.9376 0002055  43.9647  20.2857 15.25381590  8620
RS23S (SXC3-21 UTMN)    
1 53376U 22096G   22277.81787141  .00012114  00000+0  48199-3 0  9992
2 53376  97.4294 178.8771 0002092  41.3460  44.5915 15.25413391  8618
RS28S (SXC3-214 MIET-A*)
1 53377U 22096H   22277.81704662  .00011495  00000+0  45725-3 0  9993
2 53377  97.4295 178.8799 0002053  39.3246  48.3554 15.25434837  8615
RS26S (KAI-1)           
1 53378U 22096J   22277.81676944  .00010248  00000+0  40858-3 0  9992
2 53378  97.4293 178.8792 0001828  37.7424  49.6381 15.25387937  8616
RS19S (SXC3-219 ISOI)   
1 53381U 22096M   22277.86227410  .00011959  00000+0  46912-3 0  9998
2 53381  97.4301 178.9633 0002074 237.0882 188.8739 15.25891283  8620
RS21S (CUBESX-HSE-2)    
1 53383U 22096P   22277.73289409  .00011667  00000+0  45735-3 0  9990
2 53383  97.4288 178.8384 0002202 242.7839 203.6084 15.25919328  8604
RS30S (SXC3-217 SIREN)  
1 53384U 22096Q   22277.73318284  .00010632  00000+0  41732-3 0  9999
2 53384  97.4292 178.8392 0002376 245.6451 203.9435 15.25902358  8601
RS20S (GEOSCAN-EDELVEIS)
1 53385U 22096R   22277.79016252  .00014918  00000+0  57742-3 0  9995
2 53385  97.4292 178.9148 0002581 239.0525 209.7621 15.26285116  8641
RS33S (SXC3-215 VIZARD) 
1 53386U 22096S   22277.77959407  .00017776  00000+0  67879-3 0  9999
2 53386  97.4295 178.9289 0003193 246.0455 202.3288 15.26695292  8638
